NORAD_CAT_ID,OBJECT_NAME,OBJECT_TYPE,EPOCH,MEAN_MOTION,ECCENTRICITY,INCLINATION,RA_OF_ASC_NODE,ARG_OF_PERICENTER,MEAN_ANOMALY,BSTAR,MEAN_MOTION_DOT,MEAN_MOTION_DDOT,TLE_LINE0,TLE_LINE1,TLE_LINE2,SEMIMAJOR_AXIS,PERIOD,APOGEE,PERIGEE,DECAYED
52990.0,STARLINK-4286,PAYLOAD,2023-04-08 13:02:36,15.08839768,0.0001354,53.2148,210.2349,85.478,274.6367,0.0018016,0.00028501,0.0,0 STARLINK-4286,1 52990U 22076E   23098.54347526  .00028501  00000-0  18016-2 0  9994,2 52990  53.2148 210.2349 0001354  85.4780 274.6367 15.08839768 41753,6917.881,95.438,540.683,538.809,0.0
52990.0,STARLINK-4286,PAYLOAD,2023-04-09 09:42:37,15.08852888,0.0001985,53.2155,206.3735,97.5317,262.5901,0.0014419,0.00022743,0.0,0 STARLINK-4286,1 52990U 22076E   23099.40459785  .00022743  00000-0  14419-2 0  9996,2 52990  53.2155 206.3735 0001985  97.5317 262.5901 15.08852888 42351,6917.841,95.437,541.079,538.333,0.0
52990.0,STARLINK-4286,PAYLOAD,2023-04-09 11:18:00,15.08841482,0.0001575,53.2145,206.0745,98.4913,261.6257,0.00084016,0.00013109,0.0,0 STARLINK-4286,1 52990U 22076E   23099.47083825  .00013109  00000-0  84016-3 0  9998,2 52990  53.2145 206.0745 0001575  98.4913 261.6257 15.08841482 41895,6917.876,95.437,540.83,538.651,0.0
52990.0,STARLINK-4286,PAYLOAD,2023-04-09 17:39:32,15.08849684,0.0001558,53.2151,204.8833,100.503,259.6138,0.00069263,0.00010755,0.0,0 STARLINK-4286,1 52990U 22076E   23099.73579573  .00010755  00000-0  69263-3 0  9998,2 52990  53.2151 204.8833 0001558 100.5030 259.6138 15.08849684 41934,6917.851,95.437,540.794,538.638,0.0
52990.0,STARLINK-4286,PAYLOAD,2023-04-10 00:01:05,15.08845267,0.0001571,53.2146,203.6925,99.108,261.009,0.00057649,8.9e-05,0.0,0 STARLINK-4286,1 52990U 22076E   23100.00075778  .00008900  00000-0  57649-3 0  9993,2 52990  53.2146 203.6925 0001571  99.1080 261.0090 15.08845267 42444,6917.864,95.437,540.816,538.642,0.0
52990.0,STARLINK-4286,PAYLOAD,2023-04-10 09:33:24,15.08849301,0.0001353,53.2135,201.9083,102.8915,257.2228,0.00056284,8.683e-05,0.0,0 STARLINK-4286,1 52990U 22076E   23100.39819567  .00008683  00000-0  56284-3 0  9999,2 52990  53.2135 201.9083 0001353 102.8915 257.2228 15.08849301 42033,6917.852,95.437,540.653,538.781,0.0
52990.0,STARLINK-4286,PAYLOAD,2023-04-10 15:54:56,15.088614,0.0001539,53.2137,200.7193,101.2105,258.906,0.00088876,0.00013893,0.0,0 STARLINK-4286,1 52990U 22076E   23100.66315251  .00013893  00000-0  88876-3 0  9991,2 52990  53.2137 200.7193 0001539 101.2105 258.9060 15.08861400 42074,6917.815,95.436,540.745,538.615,0.0
52990.0,STARLINK-4286,PAYLOAD,2023-04-11 12:34:56,15.08850239,0.0001506,53.2136,196.8534,90.7157,269.4008,0.0003476,5.25e-05,0.0,0 STARLINK-4286,1 52990U 22076E   23101.52427009  .00005250  00000-0  34760-3 0  9993,2 52990  53.2136 196.8534 0001506  90.7157 269.4008 15.08850239 42202,6917.849,95.437,540.756,538.672,0.0
52990.0,STARLINK-4286,PAYLOAD,2023-04-11 15:45:43,15.0885748,0.0001409,53.2137,196.2586,88.517,271.5984,0.00049924,7.67e-05,0.0,0 STARLINK-4286,1 52990U 22076E   23101.65674803  .00007670  00000-0  49924-3 0  9999,2 52990  53.2137 196.2586 0001409  88.5170 271.5984 15.08857480 42220,6917.827,95.436,540.667,538.717,0.0
52990.0,STARLINK-4286,PAYLOAD,2023-04-11 23:42:38,15.08844744,0.0001203,53.2145,194.7726,93.7034,266.4096,7.4184e-05,8.93e-06,0.0,0 STARLINK-4286,1 52990U 22076E   23101.98794930  .00000893  00000-0  74184-4 0  9996,2 52990  53.2145 194.7726 0001203  93.7034 266.4096 15.08844744 42740,6917.866,95.437,540.563,538.899,0.0
52990.0,STARLINK-4286,PAYLOAD,2023-04-12 12:25:44,15.08841081,0.0001371,53.2145,192.3934,100.9511,259.1636,0.0001604,2.266e-05,0.0,0 STARLINK-4286,1 52990U 22076E   23102.51787160  .00002266  00000-0  16040-3 0  9995,2 52990  53.2145 192.3934 0001371 100.9511 259.1636 15.08841081 42359,6917.877,95.437,540.691,538.794,0.0
52990.0,STARLINK-4286,PAYLOAD,2023-04-13 10:41:08,15.08840409,0.0001463,53.2141,188.2325,68.7899,291.3249,0.00021376,3.116e-05,0.0,0 STARLINK-4286,1 52990U 22076E   23103.44523609  .00003116  00000-0  21376-3 0  9997,2 52990  53.2141 188.2325 0001463  68.7899 291.3249 15.08840409 42491,6917.879,95.438,540.756,538.732,0.0
52990.0,STARLINK-4286,PAYLOAD,2023-04-13 17:02:40,15.08850131,0.000133,53.2137,187.0411,75.1444,284.9695,0.0011496,0.0001806,0.0,0 STARLINK-4286,1 52990U 22076E   23103.71019449  .00018060  00000-0  11496-2 0  9994,2 52990  53.2137 187.0411 0001330  75.1444 284.9695 15.08850131 43004,6917.849,95.437,540.634,538.794,0.0
52990.0,STARLINK-4286,PAYLOAD,2023-04-14 12:07:18,15.0885468,0.0001218,53.2143,183.4737,77.6261,282.4867,0.0019095,0.00030245,0.0,0 STARLINK-4286,1 52990U 22076E   23104.50507727  .00030245  00000-0  19095-2 0  9995,2 52990  53.2143 183.4737 0001218  77.6261 282.4867 15.08854680 42658,6917.836,95.437,540.543,538.858,0.0
52990.0,STARLINK-4286,PAYLOAD,2023-04-14 21:39:37,15.08853599,0.0001345,53.2144,181.6894,95.8788,264.2358,0.0011685,0.00018364,0.0,0 STARLINK-4286,1 52990U 22076E   23104.90251675  .00018364  00000-0  11685-2 0  9992,2 52990  53.2144 181.6894 0001345  95.8788 264.2358 15.08853599 43180,6917.839,95.437,540.634,538.773,0.0
52990.0,STARLINK-4286,PAYLOAD,2023-04-15 11:58:05,15.08858524,0.0001154,53.2144,179.0121,93.7598,266.3526,0.0021177,0.00033593,0.0,0 STARLINK-4286,1 52990U 22076E   23105.49867622  .00033593  00000-0  21177-2 0  9990,2 52990  53.2144 179.0121 0001154  93.7598 266.3526 15.08858524 42809,6917.824,95.436,540.487,538.89,0.0
52990.0,STARLINK-4286,PAYLOAD,2023-04-15 21:30:24,15.08851097,0.000151,53.214,177.2286,94.8648,265.2516,0.0011726,0.00018429,0.0,0 STARLINK-4286,1 52990U 22076E   23105.89611793  .00018429  00000-0  11726-2 0  9990,2 52990  53.2140 177.2286 0001510  94.8648 265.2516 15.08851097 42862,6917.846,95.437,540.756,538.667,0.0
52990.0,STARLINK-4286,PAYLOAD,2023-04-16 11:48:52,15.08839562,0.0001598,53.2155,174.5529,105.9011,254.2158,0.00011224,1.499e-05,0.0,0 STARLINK-4286,1 52990U 22076E   23106.49227890  .00001499  00000-0  11224-3 0  9991,2 52990  53.2155 174.5529 0001598 105.9011 254.2158 15.08839562 42955,6917.882,95.438,540.852,538.641,0.0
52990.0,STARLINK-4286,PAYLOAD,2023-04-17 13:15:03,15.08836328,0.0001496,53.2156,169.7944,102.4926,257.6233,1.7013e-05,-1.7e-07,0.0,0 STARLINK-4286,1 52990U 22076E   23107.55212426 -.00000017  00000-0  17013-4 0  9997,2 52990  53.2156 169.7944 0001496 102.4926 257.6233 15.08836328 43585,6917.892,95.438,540.792,538.722,0.0
52990.0,STARLINK-4286,PAYLOAD,2023-04-17 21:11:59,15.08837502,0.000134,53.2148,168.3072,95.5762,264.5383,-9.3876e-06,-4.37e-06,0.0,0 STARLINK-4286,1 52990U 22076E   23107.88332453 -.00000437  00000-0 -93876-5 0  9995,2 52990  53.2148 168.3072 0001340  95.5762 264.5383 15.08837502 43163,6917.888,95.438,540.68,538.826,0.0
52990.0,STARLINK-4286,PAYLOAD,2023-04-18 09:55:04,15.08843695,0.0001403,53.2156,165.9281,90.0906,270.0247,0.00012783,1.747e-05,0.0,0 STARLINK-4286,1 52990U 22076E   23108.41324345  .00001747  00000-0  12783-3 0  9995,2 52990  53.2156 165.9281 0001403  90.0906 270.0247 15.08843695 43247,6917.869,95.437,540.705,538.764,0.0
52990.0,STARLINK-4286,PAYLOAD,2023-04-18 21:02:46,15.08844341,0.000139,53.2168,163.8479,85.9022,274.2129,6.9212e-05,8.14e-06,0.0,0 STARLINK-4286,1 52990U 22076E   23108.87692416  .00000814  00000-0  69212-4 0  9996,2 52990  53.2168 163.8479 0001390  85.9022 274.2129 15.08844341 43786,6917.867,95.437,540.694,538.771,0.0
52990.0,STARLINK-4286,PAYLOAD,2023-04-19 03:24:19,15.08837646,0.0001437,53.2155,162.6571,84.903,275.2126,0.00011731,1.579e-05,0.0,0 STARLINK-4286,1 52990U 22076E   23109.14188932  .00001579  00000-0  11731-3 0  9991,2 52990  53.2155 162.6571 0001437  84.9030 275.2126 15.08837646 43825,6917.888,95.438,540.747,538.758,0.0
52990.0,STARLINK-4286,PAYLOAD,2023-04-19 08:10:28,15.08837533,0.0001375,53.2151,161.764,90.3381,269.7769,0.00011423,1.53e-05,0.0,0 STARLINK-4286,1 52990U 22076E   23109.34060914  .00001530  00000-0  11423-3 0  9997,2 52990  53.2151 161.7640 0001375  90.3381 269.7769 15.08837533 43386,6917.888,95.438,540.704,538.802,0.0
52990.0,STARLINK-4286,PAYLOAD,2023-04-19 20:53:33,15.08841019,0.0001454,53.2153,159.3867,82.1614,277.9543,9.8777e-05,1.284e-05,0.0,0 STARLINK-4286,1 52990U 22076E   23109.87052825  .00001284  00000-0  98777-4 0  9991,2 52990  53.2153 159.3867 0001454  82.1614 277.9543 15.08841019 43462,6917.877,95.437,540.748,538.736,0.0
52990.0,STARLINK-4286,PAYLOAD,2023-04-20 12:47:25,15.0883281,0.0001583,53.2149,156.4119,82.1393,277.9779,0.00021919,3.201e-05,0.0,0 STARLINK-4286,1 52990U 22076E   23110.53293118  .00003201  00000-0  21919-3 0  9992,2 52990  53.2149 156.4119 0001583  82.1393 277.9779 15.08832810 43563,6917.902,95.438,540.862,538.672,0.0
52990.0,STARLINK-4286,PAYLOAD,2023-04-21 12:38:12,15.08836401,0.0001396,53.2138,151.9506,86.102,274.0131,4.9818e-05,5.05e-06,0.0,0 STARLINK-4286,1 52990U 22076E   23111.52653202  .00000505  00000-0  49818-4 0  9999,2 52990  53.2138 151.9506 0001396  86.1020 274.0131 15.08836401 43711,6917.891,95.438,540.722,538.791,0.0
52990.0,STARLINK-4286,PAYLOAD,2023-04-22 12:28:58,15.08849172,0.0001225,53.215,147.4904,86.7714,273.3418,0.00012881,1.763e-05,0.0,0 STARLINK-4286,1 52990U 22076E   23112.52012117  .00001763  00000-0  12881-3 0  9990,2 52990  53.2150 147.4904 0001225  86.7714 273.3418 15.08849172 44332,6917.852,95.437,540.565,538.87,0.0
52990.0,STARLINK-4286,PAYLOAD,2023-04-22 18:50:31,15.08842015,0.0001274,53.2158,146.2996,76.1105,284.0029,2.4011e-05,9.4e-07,0.0,0 STARLINK-4286,1 52990U 22076E   23112.78508792  .00000094  00000-0  24011-4 0  9992,2 52990  53.2158 146.2996 0001274  76.1105 284.0029 15.08842015 43907,6917.874,95.437,540.621,538.858,0.0
52990.0,STARLINK-4286,PAYLOAD,2023-04-23 10:44:23,15.08830513,0.000134,53.2152,143.3269,81.3376,278.7768,-5.1357e-06,-3.7e-06,0.0,0 STARLINK-4286,1 52990U 22076E   23113.44749971 -.00000370  00000-0 -51357-5 0  9995,2 52990  53.2152 143.3269 0001340  81.3376 278.7768 15.08830513 44477,6917.909,95.438,540.701,538.847,0.0
